{"type": "FeatureCollection", "features": [ {"type": "Feature", "properties": {"norad_id": 66918, "name": "HULIANWANG DIGUI-108", "group": "last-30-days", "lat": -49.968407458819826, "lon": -0.900135339502714, "alt_km": 881.824573359705, "timestamp": "2025-12-20T03:42:46.121968+00:00", "meta": {"OBJECT_NAME": "HULIANWANG DIGUI-108", "OBJECT_ID": "2025-285D", "EPOCH": "2025-12-19T21:17:54.948192", "MEAN_MOTION": 14.03601566, "ECCENTRICITY": 0.0006605, "INCLINATION": 50.0046, "RA_OF_ASC_NODE": 88.113, "ARG_OF_PERICENTER": 303.8613, "MEAN_ANOMALY": 56.1663, "EPHEMERIS_TYPE": 0, "CLASSIFICATION_TYPE": "U", "NORAD_CAT_ID": 66918, "ELEMENT_SET_NO": 999, "REV_AT_EPOCH": 191, "BSTAR": 8.242e-05, "MEAN_MOTION_DOT": -2.1e-07, "MEAN_MOTION_DDOT": 0}, "tle": {"line1": "1 66918U 25285D   25353.88744153 -.00000021  00000+0  82420-4 0  9993", "line2": "2 66918  50.0046  88.1130 0006605 303.8613  56.1663 14.03601566  1919"}}, "geometry": {"type": "Point", "coordinates": [-0.900135339502714, -49.968407458819826]}}, {"type": "Feature", "properties": {"norad_id": 66919, "name": "HULIANWANG DIGUI-109", "group": "last-30-days", "lat": -49.29700106002194, "lon": 9.644601207588634, "alt_km": 880.9389210505733, "timestamp": "2025-12-20T03:42:46.121979+00:00", "meta": {"OBJECT_NAME": "HULIANWANG DIGUI-109", "OBJECT_ID": "2025-285E", "EPOCH": "2025-12-19T21:15:59.294016", "MEAN_MOTION": 14.03725484, "ECCENTRICITY": 0.0007865, "INCLINATION": 50.007, "RA_OF_ASC_NODE": 88.1105, "ARG_OF_PERICENTER": 316.2855, "MEAN_ANOMALY": 43.7426, "EPHEMERIS_TYPE": 0, "CLASSIFICATION_TYPE": "U", "NORAD_CAT_ID": 66919, "ELEMENT_SET_NO": 999, "REV_AT_EPOCH": 191, "BSTAR": -1.3971e-05, "MEAN_MOTION_DOT": -1.74e-06, "MEAN_MOTION_DDOT": 0}, "tle": {"line1": "1 66919U 25285E   25353.88610294 -.00000174  00000+0 -13971-4 0  9997", "line2": "2 66919  50.0070  88.1105 0007865 316.2855  43.7426 14.03725484  1919"}}, "geometry": {"type": "Point", "coordinates": [9.644601207588634, -49.29700106002194]}}, {"type": "Feature", "properties": {"norad_id": 66920, "name": "HULIANWANG DIGUI-110", "group": "last-30-days", "lat": -48.35758917662801, "lon": 16.290113485979564, "alt_km": 882.0483230844038, "timestamp": "2025-12-20T03:42:46.121991+00:00", "meta": {"OBJECT_NAME": "HULIANWANG DIGUI-110", "OBJECT_ID": "2025-285F", "EPOCH": "2025-12-19T21:14:42.656352", "MEAN_MOTION": 14.03681996, "ECCENTRICITY": 0.000558, "INCLINATION": 50.0103, "RA_OF_ASC_NODE": 88.1117, "ARG_OF_PERICENTER": 313.4308, "MEAN_ANOMALY": 46.6132, "EPHEMERIS_TYPE": 0, "CLASSIFICATION_TYPE": "U", "NORAD_CAT_ID": 66920, "ELEMENT_SET_NO": 999, "REV_AT_EPOCH": 191, "BSTAR": 8.1869e-05, "MEAN_MOTION_DOT": -2.2e-07, "MEAN_MOTION_DDOT": 0}, "tle": {"line1": "1 66920U 25285F   25353.88521593 -.00000022  00000+0  81869-4 0  9994", "line2": "2 66920  50.0103  88.1117 0005580 313.4308  46.6132 14.03681996  1910"}}, "geometry": {"type": "Point", "coordinates": [16.290113485979564, -48.35758917662801]}}, {"type": "Feature", "properties": {"norad_id": 66921, "name": "HULIANWANG DIGUI-111", "group": "last-30-days", "lat": -47.0149138148674, "lon": 22.787647994631197, "alt_km": 881.4799378273765, "timestamp": "2025-12-20T03:42:46.122002+00:00", "meta": {"OBJECT_NAME": "HULIANWANG DIGUI-111", "OBJECT_ID": "2025-285G", "EPOCH": "2025-12-19T21:13:23.286720", "MEAN_MOTION": 14.03631387, "ECCENTRICITY": 0.0006649, "INCLINATION": 50.0119, "RA_OF_ASC_NODE": 88.1098, "ARG_OF_PERICENTER": 317.2102, "MEAN_ANOMALY": 42.8285, "EPHEMERIS_TYPE": 0, "CLASSIFICATION_TYPE": "U", "NORAD_CAT_ID": 66921, "ELEMENT_SET_NO": 999, "REV_AT_EPOCH": 191, "BSTAR": -1.3591e-05, "MEAN_MOTION_DOT": -1.73e-06, "MEAN_MOTION_DDOT": 0}, "tle": {"line1": "1 66921U 25285G   25353.88429730 -.00000173  00000+0 -13591-4 0  9990", "line2": "2 66921  50.0119  88.1098 0006649 317.2102  42.8285 14.03631387  1913"}}, "geometry": {"type": "Point", "coordinates": [22.787647994631197, -47.0149138148674]}}, {"type": "Feature", "properties": {"norad_id": 66922, "name": "HULIANWANG DIGUI-112", "group": "last-30-days", "lat": -45.121229581379325, "lon": 29.543754142590778, "alt_km": 881.6681817445715, "timestamp": "2025-12-20T03:42:46.122014+00:00", "meta": {"OBJECT_NAME": "HULIANWANG DIGUI-112", "OBJECT_ID": "2025-285H", "EPOCH": "2025-12-19T21:11:57.252192", "MEAN_MOTION": 14.03661315, "ECCENTRICITY": 0.0006478, "INCLINATION": 50.0092, "RA_OF_ASC_NODE": 88.0979, "ARG_OF_PERICENTER": 327.9276, "MEAN_ANOMALY": 32.1233, "EPHEMERIS_TYPE": 0, "CLASSIFICATION_TYPE": "U", "NORAD_CAT_ID": 66922, "ELEMENT_SET_NO": 999, "REV_AT_EPOCH": 191, "BSTAR": 3.2512e-07, "MEAN_MOTION_DOT": -1.51e-06, "MEAN_MOTION_DDOT": 0}, "tle": {"line1": "1 66922U 25285H   25353.88330153 -.00000151  00000+0  32512-6 0  9992", "line2": "2 66922  50.0092  88.0979 0006478 327.9276  32.1233 14.03661315  1910"}}, "geometry": {"type": "Point", "coordinates": [29.543754142590778, -45.121229581379325]}}, {"type": "Feature", "properties": {"norad_id": 66923, "name": "HULIANWANG DIGUI-113", "group": "last-30-days", "lat": -42.595290146853294, "lon": 36.47668914144727, "alt_km": 881.8768727727129, "timestamp": "2025-12-20T03:42:46.122025+00:00", "meta": {"OBJECT_NAME": "HULIANWANG DIGUI-113", "OBJECT_ID": "2025-285J", "EPOCH": "2025-12-19T21:10:22.386720", "MEAN_MOTION": 14.03699411, "ECCENTRICITY": 0.0005091, "INCLINATION": 50.009, "RA_OF_ASC_NODE": 88.0935, "ARG_OF_PERICENTER": 322.5025, "MEAN_ANOMALY": 37.5524, "EPHEMERIS_TYPE": 0, "CLASSIFICATION_TYPE": "U", "NORAD_CAT_ID": 66923, "ELEMENT_SET_NO": 999, "REV_AT_EPOCH": 191, "BSTAR": -1.5128e-05, "MEAN_MOTION_DOT": -1.75e-06, "MEAN_MOTION_DDOT": 0}, "tle": {"line1": "1 66923U 25285J   25353.88220355 -.00000175  00000+0 -15128-4 0  9994", "line2": "2 66923  50.0090  88.0935 0005091 322.5025  37.5524 14.03699411  1914"}}, "geometry": {"type": "Point", "coordinates": [36.47668914144727, -42.595290146853294]}}, {"type": "Feature", "properties": {"norad_id": 66924, "name": "CZ-8A R/B", "group": "last-30-days", "lat": 49.51181981400752, "lon": -174.90522709899864, "alt_km": 713.686421387798, "timestamp": "2025-12-20T03:42:46.122035+00:00", "meta": {"OBJECT_NAME": "CZ-8A R/B", "OBJECT_ID": "2025-285K", "EPOCH": "2025-12-19T15:31:39.014112", "MEAN_MOTION": 14.3050431, "ECCENTRICITY": 0.0119269, "INCLINATION": 50.0075, "RA_OF_ASC_NODE": 86.7522, "ARG_OF_PERICENTER": 131.0965, "MEAN_ANOMALY": 230.0323, "EPHEMERIS_TYPE": 0, "CLASSIFICATION_TYPE": "U", "NORAD_CAT_ID": 66924, "ELEMENT_SET_NO": 999, "REV_AT_EPOCH": 191, "BSTAR": 4.8048e-05, "MEAN_MOTION_DOT": -3e-07, "MEAN_MOTION_DDOT": 0}, "tle": {"line1": "1 66924U 25285K   25353.64697933 -.00000030  00000+0  48048-4 0  9995", "line2": "2 66924  50.0075  86.7522 0119269 131.0965 230.0323 14.30504310  1914"}}, "geometry": {"type": "Point", "coordinates": [-174.90522709899864, 49.51181981400752]}}, {"type": "Feature", "properties": {"norad_id": 66925, "name": "STARLINK-35945", "group": "last-30-days", "lat": 36.55067046789785, "lon": 46.979499593196564, "alt_km": 330.2315685959784, "timestamp": "2025-12-20T03:42:46.122045+00:00", "meta": {"OBJECT_NAME": "STARLINK-35945", "OBJECT_ID": "2025-286A", "EPOCH": "2025-12-19T20:00:01.999008", "MEAN_MOTION": 15.79163267, "ECCENTRICITY": 6.78e-05, "INCLINATION": 53.1557, "RA_OF_ASC_NODE": 14.8136, "ARG_OF_PERICENTER": 73.8055, "MEAN_ANOMALY": 306.9923, "EPHEMERIS_TYPE": 0, "CLASSIFICATION_TYPE": "U", "NORAD_CAT_ID": 66925, "ELEMENT_SET_NO": 999, "REV_AT_EPOCH": 313, "BSTAR": -0.0078858, "MEAN_MOTION_DOT": -0.01269321, "MEAN_MOTION_DDOT": 0}, "tle": {"line1": "1 66925U 25286A   25353.83335647 -.01269321  00000+0 -78858-2 0  9991", "line2": "2 66925  53.1557  14.8136 0000678  73.8055 306.9923 15.79163267  3134"}}, "geometry": {"type": "Point", "coordinates": [46.979499593196564, 36.55067046789785]}}, {"type": "Feature", "properties": {"norad_id": 66926, "name": "STARLINK-35942", "group": "last-30-days", "lat": 39.40428552710625, "lon": 51.224654623600884, "alt_km": 330.0421824958539, "timestamp": "2025-12-20T03:42:46.122055+00:00", "meta": {"OBJECT_NAME": "STARLINK-35942", "OBJECT_ID": "2025-286B", "EPOCH": "2025-12-19T20:00:01.999008", "MEAN_MOTION": 15.79112046, "ECCENTRICITY": 7.04e-05, "INCLINATION": 53.1559, "RA_OF_ASC_NODE": 14.8041, "ARG_OF_PERICENTER": 92.7153, "MEAN_ANOMALY": 292.5515, "EPHEMERIS_TYPE": 0, "CLASSIFICATION_TYPE": "U", "NORAD_CAT_ID": 66926, "ELEMENT_SET_NO": 999, "REV_AT_EPOCH": 313, "BSTAR": -0.0080734, "MEAN_MOTION_DOT": -0.01293162, "MEAN_MOTION_DDOT": 0}, "tle": {"line1": "1 66926U 25286B   25353.83335647 -.01293162  00000+0 -80734-2 0  9998", "line2": "2 66926  53.1559  14.8041 0000704  92.7153 292.5515 15.79112046  3137"}}, "geometry": {"type": "Point", "coordinates": [51.224654623600884, 39.40428552710625]}}, {"type": "Feature", "properties": {"norad_id": 66927, "name": "STARLINK-35943", "group": "last-30-days", "lat": 40.69396884443099, "lon": 53.347441313443504, "alt_km": 329.68146234748747, "timestamp": "2025-12-20T03:42:46.122065+00:00", "meta": {"OBJECT_NAME": "STARLINK-35943", "OBJECT_ID": "2025-286C", "EPOCH": "2025-12-19T20:00:01.999008", "MEAN_MOTION": 15.79109965, "ECCENTRICITY": 9.47e-05, "INCLINATION": 53.1558, "RA_OF_ASC_NODE": 14.8, "ARG_OF_PERICENTER": 82.5763, "MEAN_ANOMALY": 304.7773, "EPHEMERIS_TYPE": 0, "CLASSIFICATION_TYPE": "U", "NORAD_CAT_ID": 66927, "ELEMENT_SET_NO": 999, "REV_AT_EPOCH": 313, "BSTAR": -0.0082332, "MEAN_MOTION_DOT": -0.01340405, "MEAN_MOTION_DDOT": 0}, "tle": {"line1": "1 66927U 25286C   25353.83335647 -.01340405  00000+0 -82332-2 0  9998", "line2": "2 66927  53.1558  14.8000 0000947  82.5763 304.7773 15.79109965  3133"}}, "geometry": {"type": "Point", "coordinates": [53.347441313443504, 40.69396884443099]}}]}